{
  "type": "FeatureCollection",
  "name": "South Mumbai pilot ward synthetic drainage graph",
  "properties": {
    "ward_id": "pilot_ward",
    "source": "synthetic",
    "backbone": "OSM-aligned pilot road junctions",
    "elevation_source": "synthetic pilot elevations; DEM not available",
    "roughness_note": "Concrete storm-drain default Manning n=0.013"
  },
  "features": [
    {
      "type": "Feature",
      "geometry": { "type": "Point", "coordinates": [72.8200, 18.9600] },
      "properties": { "id": "node_01", "type": "manhole", "source": "synthetic", "capacity": 4.0, "capacity_unit": "m3/s", "elevation_m": 7.2, "slope_percent": 0.8, "status": "normal", "current_load": 1.8 }
    },
    {
      "type": "Feature",
      "geometry": { "type": "Point", "coordinates": [72.8220, 18.9610] },
      "properties": { "id": "node_02", "type": "manhole", "source": "synthetic", "capacity": 3.5, "capacity_unit": "m3/s", "elevation_m": 6.8, "slope_percent": 0.7, "status": "normal", "current_load": 2.1 }
    },
    {
      "type": "Feature",
      "geometry": { "type": "Point", "coordinates": [72.8245, 18.9595] },
      "properties": { "id": "node_03", "type": "manhole", "source": "synthetic", "capacity": 4.0, "capacity_unit": "m3/s", "elevation_m": 5.9, "slope_percent": 0.6, "status": "congested", "current_load": 3.8 }
    },
    {
      "type": "Feature",
      "geometry": { "type": "Point", "coordinates": [72.8270, 18.9580] },
      "properties": { "id": "node_04", "type": "manhole", "source": "synthetic", "capacity": 5.2, "capacity_unit": "m3/s", "elevation_m": 5.1, "slope_percent": 0.5, "status": "normal", "current_load": 2.7 }
    },
    {
      "type": "Feature",
      "geometry": { "type": "Point", "coordinates": [72.8300, 18.9560] },
      "properties": { "id": "node_05", "type": "manhole", "source": "synthetic", "capacity": 6.0, "capacity_unit": "m3/s", "elevation_m": 4.4, "slope_percent": 0.4, "status": "normal", "current_load": 3.0, "name": "Masjid Bunder Sluice" }
    },
    {
      "type": "Feature",
      "geometry": { "type": "Point", "coordinates": [72.8355, 18.9540] },
      "properties": { "id": "node_06", "type": "manhole", "source": "synthetic", "capacity": 7.5, "capacity_unit": "m3/s", "elevation_m": 3.2, "slope_percent": 0.4, "status": "normal", "current_load": 3.5, "name": "Carnac Coastal Conduit (Zone Boundary Exit)" }
    },
    {
      "type": "Feature",
      "geometry": { "type": "Point", "coordinates": [72.8420, 18.9525] },
      "properties": { "id": "node_07", "type": "manhole", "source": "synthetic", "capacity": 9.0, "capacity_unit": "m3/s", "elevation_m": 1.8, "slope_percent": 0.35, "status": "normal", "current_load": 4.2, "name": "Indira Docks Shoreline Seawall" }
    },
    {
      "type": "Feature",
      "geometry": { "type": "Point", "coordinates": [72.8485, 18.9515] },
      "properties": { "id": "node_08", "type": "manhole", "source": "synthetic", "capacity": 12.0, "capacity_unit": "m3/s", "elevation_m": 0.5, "slope_percent": 0.3, "status": "normal", "current_load": 4.8, "name": "Victoria Dock Tidal Flume" }
    },
    {
      "type": "Feature",
      "geometry": { "type": "Point", "coordinates": [72.8580, 18.9485] },
      "properties": { "id": "node_09", "type": "outfall", "source": "synthetic", "capacity": 16.0, "capacity_unit": "m3/s", "elevation_m": 0.0, "slope_percent": 0.25, "status": "normal", "current_load": 5.4, "name": "Arabian Sea Deepwater Marine Outfall" }
    },
    {
      "type": "Feature",
      "geometry": { "type": "LineString", "coordinates": [[72.8200, 18.9600], [72.8220, 18.9610]] },
      "properties": { "id": "pipe_01", "type": "pipe", "source": "synthetic", "capacity": 4.0, "capacity_unit": "m3/s", "diameter_mm": 1200, "slope_percent": 0.8, "manning_n": 0.013, "from_node": "node_01", "to_node": "node_02", "status": "normal", "road_alignment": "OSM-aligned synthetic segment" }
    },
    {
      "type": "Feature",
      "geometry": { "type": "LineString", "coordinates": [[72.8220, 18.9610], [72.8245, 18.9595]] },
      "properties": { "id": "pipe_02", "type": "pipe", "source": "synthetic", "capacity": 3.5, "capacity_unit": "m3/s", "diameter_mm": 1050, "slope_percent": 0.7, "manning_n": 0.013, "from_node": "node_02", "to_node": "node_03", "status": "normal", "road_alignment": "OSM-aligned synthetic segment" }
    },
    {
      "type": "Feature",
      "geometry": { "type": "LineString", "coordinates": [[72.8245, 18.9595], [72.8270, 18.9580]] },
      "properties": { "id": "pipe_03", "type": "pipe", "source": "synthetic", "capacity": 4.0, "capacity_unit": "m3/s", "diameter_mm": 1200, "slope_percent": 0.6, "manning_n": 0.013, "from_node": "node_03", "to_node": "node_04", "status": "congested", "road_alignment": "OSM-aligned synthetic segment" }
    },
    {
      "type": "Feature",
      "geometry": { "type": "LineString", "coordinates": [[72.8270, 18.9580], [72.8300, 18.9560]] },
      "properties": { "id": "pipe_04", "type": "pipe", "source": "synthetic", "capacity": 5.2, "capacity_unit": "m3/s", "diameter_mm": 1500, "slope_percent": 0.5, "manning_n": 0.013, "from_node": "node_04", "to_node": "node_05", "status": "normal", "road_alignment": "OSM-aligned synthetic outfall segment" }
    },
    {
      "type": "Feature",
      "geometry": { "type": "LineString", "coordinates": [[72.8300, 18.9560], [72.8355, 18.9540]] },
      "properties": { "id": "pipe_05", "type": "pipe", "source": "synthetic", "capacity": 7.5, "capacity_unit": "m3/s", "diameter_mm": 1800, "slope_percent": 0.4, "manning_n": 0.013, "from_node": "node_05", "to_node": "node_06", "status": "normal", "road_alignment": "Impact Zone Perimeter Escape Trunk" }
    },
    {
      "type": "Feature",
      "geometry": { "type": "LineString", "coordinates": [[72.8355, 18.9540], [72.8420, 18.9525]] },
      "properties": { "id": "pipe_06", "type": "pipe", "source": "synthetic", "capacity": 9.0, "capacity_unit": "m3/s", "diameter_mm": 2000, "slope_percent": 0.35, "manning_n": 0.013, "from_node": "node_06", "to_node": "node_07", "status": "normal", "road_alignment": "P. D'Mello Coastal Discharge Canal" }
    },
    {
      "type": "Feature",
      "geometry": { "type": "LineString", "coordinates": [[72.8420, 18.9525], [72.8485, 18.9515]] },
      "properties": { "id": "pipe_07", "type": "pipe", "source": "synthetic", "capacity": 12.0, "capacity_unit": "m3/s", "diameter_mm": 2200, "slope_percent": 0.3, "manning_n": 0.013, "from_node": "node_07", "to_node": "node_08", "status": "normal", "road_alignment": "Dock Basin Marine Conduit" }
    },
    {
      "type": "Feature",
      "geometry": { "type": "LineString", "coordinates": [[72.8485, 18.9515], [72.8580, 18.9485]] },
      "properties": { "id": "pipe_08", "type": "pipe", "source": "synthetic", "capacity": 16.0, "capacity_unit": "m3/s", "diameter_mm": 2600, "slope_percent": 0.25, "manning_n": 0.013, "from_node": "node_08", "to_node": "node_09", "status": "normal", "road_alignment": "Arabian Sea Deepwater Gravity Outfall Channel" }
    }
  ]
}
